HAWK-A                  
1 43765U 18099H   26192.95751059  .00004339  00000+0  17431-3 0  9990
2 43765  97.3904 244.8727 0034381 195.3513 164.6685 15.24938254416874
HAWK-B                  
1 43794U 18099AN  26193.07445703  .00003716  00000+0  15858-3 0  9991
2 43794  97.3952 244.3505 0031085 213.2280 146.7006 15.23092911416820
HAWK-C                  
1 43799U 18099AT  26193.00850949  .00004979  00000+0  17834-3 0  9999
2 43799  97.3883 245.9582 0039979 195.1149 164.8899 15.28458113417706
HAWK-2C                 
1 47502U 21006CT  26193.18787188  .00003972  00000+0  11930-3 0  9993
2 47502  97.2270 237.0013 0008604 109.3431 250.8744 15.34964737303333
HAWK-2A                 
1 47505U 21006CW  26193.19012538  .00004000  00000+0  12009-3 0  9998
2 47505  97.2312 237.6959 0008117 112.5807 247.6296 15.34979714303337
HAWK-2B                 
1 47508U 21006CZ  26192.72761057  .00004605  00000+0  13734-3 0  9993
2 47508  97.2184 235.5351 0008667 112.2337 247.9827 15.35104016303266
HAWK-3B                 
1 48931U 21059BE  26193.48997834  .00032072  00000+0  24953-3 0  9994
2 48931  97.6639  32.6312 0004252 209.0497 151.0530 15.71691393281829
HAWK-3C                 
1 48948U 21059BX  26193.55333510  .00035057  00000+0  27246-3 0  9999
2 48948  97.6757  38.4300 0004501 208.2392 151.8627 15.71698478281838
HAWK-3A                 
1 48957U 21059CG  26193.48955475  .00034376  00000+0  26726-3 0  9996
2 48957  97.6701  35.5442 0004423 211.1567 148.9434 15.71694797281824
HAWK-5C                 
1 52754U 22057Y   26193.51451322  .00011544  00000+0  19176-3 0  9994
2 52754  97.6605 354.8352 0003083 357.3568   2.7667 15.52262718230270
HAWK-5B                 
1 52756U 22057AA  26193.51432485  .00011357  00000+0  18869-3 0  9995
2 52756  97.6620 353.1878 0003728 343.4184  16.6946 15.52260318230278
HAWK-5A                 
1 52757U 22057AB  26193.51412976  .00011653  00000+0  19356-3 0  9990
2 52757  97.6614 354.0183 0003594 349.1787  10.9387 15.52261140230274
HAWK-6B                 
1 55324U 23011A   26193.49366660  .00002500  00000+0  11181-3 0  9998
2 55324  40.4967 204.4428 0003794 226.2355 133.8140 15.23138816191709
HAWK-6C                 
1 55326U 23011C   26193.42747242  .00002614  00000+0  11653-3 0  9992
2 55326  40.4959 201.6644 0004291 217.2820 142.7692 15.23140487191709
HAWK-6A                 
1 55327U 23011D   26193.42750828  .00002533  00000+0  11316-3 0  9993
2 55327  40.4967 203.2914 0003801 214.8254 145.2307 15.23139285191702
HAWK-7A                 
1 56191U 23054P   26193.26590500  .00003100  00000+0  11752-3 0  9996
2 56191  97.2675  79.9660 0001746 348.3867  11.7332 15.27613216180857
